$$SOE
2459580.500000000, A.D. 2022-Jan-01 00:00:00.0000, 2.562164719915497E+08, -3.243338811323122E+08, 2.403963652639103E+07,
2459587.500000000, A.D. 2022-Jan-08 00:00:00.0000, 2.642282975490195E+08, -3.171304576077622E+08, 2.406832317487688E+07,
2459594.500000000, A.D. 2022-Jan-15 00:00:00.0000, 2.720588486436907E+08, -3.097092378558239E+08, 2.408046310449667E+07,
2459601.500000000, A.D. 2022-Jan-22 00:00:00.0000, 2.797020146248003E+08, -3.020744722776827E+08, 2.407598104109621E+07,
2459608.500000000, A.D. 2022-Jan-29 00:00:00.0000, 2.871517640687439E+08, -2.942305881342693E+08, 2.405481251812799E+07,
2459615.500000000, A.D. 2022-Feb-05 00:00:00.0000, 2.944021480856652E+08, -2.861821900777390E+08, 2.401690424745604E+07,
2459622.500000000, A.D. 2022-Feb-12 00:00:00.0000, 3.014473059047572E+08, -2.779340615808676E+08, 2.396221420242897E+07,
2459629.500000000, A.D. 2022-Feb-19 00:00:00.0000, 3.082814714101283E+08, -2.694911648858698E+08, 2.389071172776343E+07,
2459636.500000000, A.D. 2022-Feb-26 00:00:00.0000, 3.148989793115761E+08, -2.608586401869029E+08, 2.380237773685426E+07,
2459643.500000000, A.D. 2022-Mar-05 00:00:00.0000, 3.212942711041231E+08, -2.520418046540506E+08, 2.369720493071236E+07,
2459650.500000000, A.D. 2022-Mar-12 00:00:00.0000, 3.274619010320430E+08, -2.430461513551513E+08, 2.357519801194747E+07,
2459657.500000000, A.D. 2022-Mar-19 00:00:00.0000, 3.333965421217338E+08, -2.338773480381415E+08, 2.343637388867179E+07,
2459664.500000000, A.D. 2022-Mar-26 00:00:00.0000, 3.390929922982251E+08, -2.245412357707565E+08, 2.328076186483551E+07,
2459671.500000000, A.D. 2022-Apr-02 00:00:00.0000, 3.445461806440887E+08, -2.150438274841221E+08, 2.310840380506937E+07,
2459678.500000000, A.D. 2022-Apr-09 00:00:00.0000, 3.497511740628068E+08, -2.053913064050681E+08, 2.291935424817564E+07,
2459685.500000000, A.D. 2022-Apr-16 00:00:00.0000, 3.547031846948693E+08, -1.955900237124870E+08, 2.271368048902372E+07,
2459692.500000000, A.D. 2022-Apr-23 00:00:00.0000, 3.593975768104020E+08, -1.856464943254908E+08, 2.249146283357293E+07,
2459699.500000000, A.D. 2022-Apr-30 00:00:00.0000, 3.638298712984509E+08, -1.755673930628512E+08, 2.225279501456971E+07,
2459706.500000000, A.D. 2022-May-07 00:00:00.0000, 3.679957508022444E+08, -1.653595531395734E+08, 2.199778432446189E+07,
2459713.500000000, A.D. 2022-May-14 00:00:00.0000, 3.718910668770685E+08, -1.550299639537709E+08, 2.172655158532467E+07,
2459720.500000000, A.D. 2022-May-21 00:00:00.0000, 3.755118471280006E+08, -1.445857673988116E+08, 2.143923120351090E+07,
2459727.500000000, A.D. 2022-May-28 00:00:00.0000, 3.788543018352970E+08, -1.340342536549752E+08, 2.113597127386883E+07,
2459734.500000000, A.D. 2022-Jun-04 00:00:00.0000, 3.819148303285071E+08, -1.233828567692225E+08, 2.081693368141500E+07,
2459741.500000000, A.D. 2022-Jun-11 00:00:00.0000, 3.846900272359316E+08, -1.126391500159186E+08, 2.048229418587355E+07,
2459748.500000000, A.D. 2022-Jun-18 00:00:00.0000, 3.871766886298671E+08, -1.018108410190933E+08, 2.013224248507651E+07,
2459755.500000000, A.D. 2022-Jun-25 00:00:00.0000, 3.893718180807371E+08, -9.090576666329929E+07, 1.976698225069559E+07,
2459762.500000000, A.D. 2022-Jul-02 00:00:00.0000, 3.912726327396823E+08, -7.993188785492869E+07, 1.938673111803959E+07,
2459769.500000000, A.D. 2022-Jul-09 00:00:00.0000, 3.928765698248065E+08, -6.889728395569623E+07, 1.899172060813242E+07,
2459776.500000000, A.D. 2022-Jul-16 00:00:00.0000, 3.941812934404398E+08, -5.781014580501356E+07, 1.858219607543105E+07,
2459783.500000000, A.D. 2022-Jul-23 00:00:00.0000, 3.951846995178918E+08, -4.667876725583059E+07, 1.815841688955151E+07,
2459790.500000000, A.D. 2022-Jul-30 00:00:00.0000, 3.958849189460770E+08, -3.551153858430401E+07, 1.772065656893187E+07,
2459797.500000000, A.D. 2022-Aug-06 00:00:00.0000, 3.962803224691834E+08, -2.431694113041589E+07, 1.726920258808160E+07,
2459804.500000000, A.D. 2022-Aug-13 00:00:00.0000, 3.963695265073370E+08, -1.310354041865412E+07, 1.680435615821936E+07,
2459811.500000000, A.D. 2022-Aug-20 00:00:00.0000, 3.961513983126428E+08, -1.879978267451403E+06, 1.632643208383525E+07,
2459818.500000000, A.D. 2022-Aug-27 00:00:00.0000, 3.956250605109030E+08, 9.345035378658136E+06, 1.583575862937552E+07,
2459825.500000000, A.D. 2022-Sep-03 00:00:00.0000, 3.947898952589840E+08, 2.056273077462161E+07, 1.533267736410726E+07,
2459832.500000000, A.D. 2022-Sep-10 00:00:00.0000, 3.936455480900119E+08, 3.176428687157051E+07, 1.481754297871561E+07,
2459839.500000000, A.D. 2022-Sep-17 00:00:00.0000, 3.921919314580370E+08, 4.294083997081409E+07, 1.429072307066633E+07,
2459846.500000000, A.D. 2022-Sep-24 00:00:00.0000, 3.904292280250112E+08, 5.408349247049524E+07, 1.375259788849616E+07,
2459853.500000000, A.D. 2022-Oct-01 00:00:00.0000, 3.883578939121485E+08, 6.518332166681970E+07, 1.320356001088732E+07,
2459860.500000000, A.D. 2022-Oct-08 00:00:00.0000, 3.859786623026407E+08, 7.623138911466572E+07, 1.264401396516304E+07,
2459867.500000000, A.D. 2022-Oct-15 00:00:00.0000, 3.832925464423543E+08, 8.721875173178959E+07, 1.207437596829962E+07,
2459874.500000000, A.D. 2022-Oct-22 00:00:00.0000, 3.803008398426322E+08, 9.813647294942287E+07, 1.149507385365781E+07,
2459881.500000000, A.D. 2022-Oct-29 00:00:00.0000, 3.770051161724478E+08, 1.089756312972518E+08, 1.090654674272913E+07,
2459888.500000000, A.D. 2022-Nov-05 00:00:00.0000, 3.734072309243901E+08, 1.197273291435372E+08, 1.030924449312674E+07,
2459895.500000000, A.D. 2022-Nov-12 00:00:00.0000, 3.695093228764995E+08, 1.303827028384029E+08, 9.703627206950136E+06,
2459902.500000000, A.D. 2022-Nov-19 00:00:00.0000, 3.653138146210076E+08, 1.409329332855506E+08, 9.090164788204834E+06,
2459909.500000000, A.D. 2022-Nov-26 00:00:00.0000, 3.608234124137591E+08, 1.513692565225204E+08, 8.469336493402675E+06,
2459916.500000000, A.D. 2022-Dec-03 00:00:00.0000, 3.560411055023124E+08, 1.616829742743044E+08, 7.841630459816910E+06,
2459923.500000000, A.D. 2022-Dec-10 00:00:00.0000, 3.509701649709271E+08, 1.718654644748037E+08, 7.207543209457636E+06,
2459930.500000000, A.D. 2022-Dec-17 00:00:00.0000, 3.456141421210372E+08, 1.819081917067541E+08, 6.567579125287674E+06,
2459937.500000000, A.D. 2022-Dec-24 00:00:00.0000, 3.399768664923607E+08, 1.918027174699113E+08, 5.922249885225520E+06,
2459944.500000000, A.D. 2022-Dec-31 00:00:00.0000, 3.340624438804446E+08, 2.015407103599597E+08, 5.272073830880776E+06,
2459951.500000000, A.D. 2023-Jan-07 00:00:00.0000, 3.278752544717022E+08, 2.111139570931278E+08, 4.617575339150831E+06,
2459958.500000000, A.D. 2023-Jan-14 00:00:00.0000, 3.214199491248780E+08, 2.205143748469975E+08, 3.959284418837145E+06,
2459965.500000000, A.D. 2023-Jan-21 00:00:00.0000, 3.147014431570727E+08, 2.297340217243320E+08, 3.297736334131822E+06,
2459972.500000000, A.D. 2023-Jan-28 00:00:00.0000, 3.077249113122559E+08, 2.387651051202982E+08, 2.633470903849363E+06,
2459979.500000000, A.D. 2023-Feb-04 00:00:00.0000, 3.004957837096822E+08, 2.475999909928245E+08, 1.967031743861824E+06,
2459986.500000000, A.D. 2023-Feb-11 00:00:00.0000, 2.930197409836032E+08, 2.562312138165410E+08, 1.298965602922916E+06,
2459993.500000000, A.D. 2023-Feb-18 00:00:00.0000, 2.853027085609193E+08, 2.646514863711710E+08, 6.298217317657620E+05,
2460000.500000000, A.D. 2023-Feb-25 00:00:00.0000, 2.773508503500715E+08, 2.728537091752974E+08, -3.984875059674680E+04,
2460007.500000000, A.D. 2023-Mar-04 00:00:00.0000, 2.691705619529458E+08, 2.808309795572324E+08, -7.094934998186529E+05,
2460014.500000000, A.D. 2023-Mar-11 00:00:00.0000, 2.607684634379387E+08, 2.885766003393663E+08, -1.378559599204198E+06,
2460021.500000000, A.D. 2023-Mar-18 00:00:00.0000, 2.521513917335579E+08, 2.960840880669768E+08, -2.046494228869379E+06,
2460028.500000000, A.D. 2023-Mar-25 00:00:00.0000, 2.433263928633913E+08, 3.033471807183102E+08, -2.712745371257871E+06,
2460035.500000000, A.D. 2023-Apr-01 00:00:00.0000, 2.343007144699293E+08, 3.103598452738901E+08, -3.376762557858393E+06,
2460042.500000000, A.D. 2023-Apr-08 00:00:00.0000, 2.250817980366347E+08, 3.171162863503659E+08, -4.037997499224544E+06,
2460049.500000000, A.D. 2023-Apr-15 00:00:00.0000, 2.156772684905580E+08, 3.236109547702598E+08, -4.695904472638547E+06,
2460056.500000000, A.D. 2023-Apr-22 00:00:00.0000, 2.060949230148578E+08, 3.298385530018258E+08, -5.349940880709797E+06,
2460063.500000000, A.D. 2023-Apr-29 00:00:00.0000, 1.963427218333494E+08, 3.357940397090396E+08, -5.999568046594396E+06,
2460070.500000000, A.D. 2023-May-06 00:00:00.0000, 1.864287792306523E+08, 3.414726351757507E+08, -6.644251937712431E+06,
2460077.500000000, A.D. 2023-May-13 00:00:00.0000, 1.763613538533549E+08, 3.468698266967191E+08, -7.283463799887091E+06,
2460084.500000000, A.D. 2023-May-20 00:00:00.0000, 1.661488385504858E+08, 3.519813734341274E+08, -7.916680762128428E+06,
2460091.500000000, A.D. 2023-May-27 00:00:00.0000, 1.557997499721721E+08, 3.568033107015909E+08, -8.543386430995703E+06,
2460098.500000000, A.D. 2023-Jun-03 00:00:00.0000, 1.453227180100380E+08, 3.613319536946242E+08, -9.163071476584658E+06,
2460105.500000000, A.D. 2023-Jun-10 00:00:00.0000, 1.347264751293566E+08, 3.655639006483536E+08, -9.775234212396398E+06,
2460112.500000000, A.D. 2023-Jun-17 00:00:00.0000, 1.240198457082719E+08, 3.694960353586634E+08, -1.037938118115288E+07,
2460119.500000000, A.D. 2023-Jun-24 00:00:00.0000, 1.132117357302960E+08, 3.731255291209508E+08, -1.097502777040556E+07,
2460126.500000000, A.D. 2023-Jul-01 00:00:00.0000, 1.023111231102536E+08, 3.764498429160630E+08, -1.156169881277263E+07,
2460133.500000000, A.D. 2023-Jul-08 00:00:00.0000, 9.132704700834660E+07, 3.794667306663173E+08, -1.213892894960964E+07,
2460140.500000000, A.D. 2023-Jul-15 00:00:00.0000, 8.026859488009173E+07, 3.821742407291676E+08, -1.270626287093368E+07,
2460147.500000000, A.D. 2023-Jul-22 00:00:00.0000, 6.914489080486360E+07, 3.845707146006048E+08, -1.326325583781013E+07,
$$EOE